dbn,school_name,address,lat,lon,district,school_type,grades,has_mshp,chronic_absenteeism_rate,enrollment
75M401,Hospital Schools,3450 EAST TREMONT AVENUE,40.831829,-73.827642,8,Other,"01,02,03,04,05,06,07,08,09,10,11,12,SE",False,,
75M501,Home Instruction,3450 EAST TREMONT AVENUE,40.831829,-73.827642,8,Other,"01,02,03,04,05,06,07,08,09,10,11,12",False,,
07X001,P.S. 001 Courtlandt School,335 EAST 152 STREET,40.819331,-73.919634,7,Elementary,"PK,0K,01,02,03,04,05",False,37.3601799,447.0
10X003,P.S. 3 Raul Julia Micro Society,2100 LAFONTAINE AVENUE,40.850131,-73.89163,10,Elementary,"PK,0K,01,02,03,04,05,06,07,08",False,44.30769348,325.0
09X004,P.S./M.S. 004 Crotona Park West,1701 FULTON AVENUE,40.841758,-73.897943,9,Middle School,"0K,01,02,03,04,05,06,07,08",False,45.81673431,251.0
07X005,P.S. 5 Port Morris,564 JACKSON AVENUE,40.813896,-73.908358,7,Elementary,"PK,0K,01,02,03,04,05,06,07,08",False,23.98884201,717.0
12X006,P.S. 006 West Farms,1000 EAST TREMONT AVENUE,40.840445,-73.882531,12,Elementary,"PK,0K,01,02,03,04,05",False,53.34685516,493.0
10X007,Milton Fein School,3201 KINGSBRIDGE AVENUE,40.881562,-73.905697,10,Other,"0K,01,02,03,04,05",False,22.25063896,391.0
10X008,P.S. 008 Isaac Varian,3010 BRIGGS AVENUE,40.872259,-73.883339,10,Elementary,"0K,01,02,03,04,05",True,37.57225418,692.0
10X009,P.S. 9 Ryer Avenue Elementary School,230 EAST 183 STREET,40.85644,-73.898821,10,Elementary,"PK,0K,01,02,03,04,05",False,38.24091721,523.0
75X010,P.S. X010,2750 LAFAYETTE AVENUE,40.82708,-73.829211,8,Elementary,"PK,0K,01,02,SE",False,,
09X011,P.S. 011 Highbridge,1257 OGDEN AVENUE,40.839693,-73.92589,9,Elementary,"0K,01,02,03,04",False,37.89954376,438.0
75X012,P.S. X012 Lewis and Clark School,2555 TRATMAN AVENUE,40.840625,-73.844685,11,Elementary,"03,04,05,06,07,08,09,10,11,12,SE",False,,
08X014,P.S. X014 Senator John Calandra,3047 BRUCKNER BOULEVARD,40.835318,-73.826277,8,Elementary,"0K,01,02,03,04,05",False,40.05235672,764.0
10X015,P.S. X015 Institute for Environmental Learning,2195 ANDREWS AVENUE,40.859243,-73.909763,10,Elementary,"0K,01,02,03,04,05,06,07,08",False,32.32323074,396.0
11X016,P.S. 016 Wakefield,4550 CARPENTER AVENUE,40.902311,-73.854231,11,Elementary,"PK,0K,01,02,03,04,05",False,42.30769348,390.0
75X017,P.S. X017,778 FOREST AVENUE,40.818703,-73.905389,7,Elementary,"01,02,03,04,05,06,07,08,09,SE",False,,
07X018,P.S. 018 John Peter Zenger,502 MORRIS AVENUE,40.816369,-73.922697,7,Elementary,"PK,0K,01,02,03,04,05",True,35.714286799999996,322.0
11X019,P.S. 019 Judith K. Weiss,4318 KATONAH AVENUE,40.899351,-73.866949,11,Elementary,"0K,01,02,03,04,05,06,07,08",False,17.09401703,702.0
10X020,"PS/MS 20 P.O.George J. Werdann, III",3050 WEBSTER AVENUE,40.869482,-73.878731,10,Other,"PK,0K,01,02,03,04,05,06,07,08",False,43.80069351,863.0
11X021,P.S. 021 Philip H. Sheridan,715 EAST 225 STREET,40.887888,-73.85942,11,Elementary,"0K,01,02,03,04,05",False,30.6866951,466.0
09X022,J.H.S. 022 Jordan L. Mott,270 EAST 167 STREET,40.832022,-73.91435,9,Middle School,"05,06,07,08",False,41.9141922,303.0
10X023,P.S. 023 The New Children's School,2151 WASHINGTON AVENUE,40.853294,-73.894951,10,Elementary,"PK,0K,01,02,03,04,05",False,41.860466,387.0
10X024,P.S. 024 Spuyten Duyvil,660 WEST 236 STREET,40.886922,-73.915114,10,Elementary,"0K,01,02,03,04,05",False,12.847682,755.0
07X025,P.S. 025 Bilingual School,811 EAST 149 STREET,40.812895,-73.905751,7,Elementary,"PK,0K,01,02,03,04,05,SE",False,25.11520767,434.0
09X028,P.S. 028 Mount Hope,1861 ANTHONY AVENUE,40.848344,-73.903821,9,Elementary,"PK,0K,01,02,03,04,05",True,40.06462097,619.0
07X029,P.S./M.S. 029 Melrose School,758 COURTLANDT AVENUE,40.821544,-73.916419,7,Middle School,"PK,0K,01,02,03,04,05,06,07,08",False,33.04093552,684.0
07X030,P.S. 030 Wilton,510 EAST 141 STREET,40.809023,-73.917417,7,Elementary,"PK,0K,01,02,03,04,05",False,38.30334091,389.0
07X031,P.S./M.S. 031 The William Lloyd Garrison,250 EAST 156 STREET,40.822574,-73.92114,7,Middle School,"PK,0K,01,02,03,04,05,06,07,08",True,29.10569191,615.0
10X032,P.S. 032 Belmont,690 EAST 183 STREET,40.851724,-73.88622,10,Elementary,"0K,01,02,03,04,05",False,48.32775879,598.0
10X033,P.S. 033 Timothy Dwight,2424 JEROME AVENUE,40.861698,-73.901268,10,Elementary,"PK,0K,01,02,03,04,05",False,49.70553589,849.0
09X035,P.S. 035 Franz Siegel,261 EAST 163 STREET,40.828009,-73.917705,9,Elementary,"0K,01,02,03,04,05",False,38.55721283,402.0
08X036,P.S. 036 Unionport,1070 CASTLE HILL AVENUE,40.82948,-73.849791,8,Elementary,"PK,0K,01,02,03,04,05",False,40.95890427,730.0
10X037,P.S. X037 - Multiple Intelligence School,360 WEST 230 STREET,40.877935,-73.913694,10,Elementary,"0K,01,02,03,04,05,06,07,08",False,53.81443405,485.0
11X041,P.S. 041 Gun Hill Road,3352 OLINVILLE AVENUE,40.874754,-73.867834,11,Elementary,"0K,01,02,03,04,05",False,49.06204987,693.0
09X042,P.S. 042 Claremont,1537 WASHINGTON AVENUE,40.838636,-73.903243,9,Elementary,"PK,0K,01,02,03,04,05",False,51.38539124,397.0
07X043,P.S. 043 Jonas Bronck,165 BROWN PLACE,40.806452,-73.921593,7,Elementary,"PK,0K,01,02,03,04,05",False,26.90355301,394.0
12X044,P.S. 044 David C. Farragut,1825 PROSPECT AVENUE,40.842564,-73.891086,12,Elementary,"PK,0K,01,02,03,04,05",False,50.92592621,216.0
10X045,Thomas C. Giordano Middle School 45,2502 LORILLARD PLACE,40.858389,-73.887026,10,Middle School,"06,07,08",False,39.61455917,467.0
10X046,P.S. 046 Edgar Allan Poe,279 EAST 196 STREET,40.867169,-73.890402,10,Elementary,"0K,01,02,03,04,05",False,30.46757126,663.0
12X047,P.S. 047 John Randolph,1794 EAST 172 STREET,40.832529,-73.866974,12,Elementary,"0K,01,02,03,04,05",False,35.02304077,868.0
08X048,P.S. 048 Joseph R. Drake,1290 SPOFFORD AVENUE,40.814034,-73.886834,8,Elementary,"PK,0K,01,02,03,04,05",False,51.6831665,505.0
07X049,P.S. 049 Willis Avenue,383 EAST 139 STREET,40.810413,-73.92273,7,Elementary,"PK,0K,01,02,03,04,05",False,34.46327591,531.0
10X051,The Bronx STEM and Arts Academy,695 EAST 182ND STREET,40.850674,-73.886997,10,High School,"0K,01,02,03,04,05",False,41.29032135,155.0
09X053,P.S. 053 Basheer Quisim,360 EAST 168 STREET,40.832648,-73.911906,9,Elementary,"PK,0K,01,02,03,04,05",False,40.08683014,691.0
10X054,P.S./I.S. 54,2703 WEBSTER AVENUE,40.864872,-73.88794,10,Middle School,"PK,0K,01,02,03,04,05",False,37.96791458,374.0
09X055,P.S. 055 Benjamin Franklin,450 SAINT PAUL'S PLACE,40.835934,-73.90497,9,Elementary,"PK,0K,01,02,03,04,05",True,45.30685806,554.0
10X056,P.S. 056 Norwood Heights,341 EAST 207 STREET,40.875481,-73.874912,10,Elementary,"0K,01,02,03,04,05",False,39.42598343,662.0
12X057,P.S. 057 Crescent,2111 CROTONA AVENUE,40.848748,-73.888987,12,Elementary,"PK,0K,01,02,03,04,05",False,43.13725662,408.0
09X058,P.S. 058,459 EAST 176 STREET,40.846383,-73.898826,9,Elementary,"0K,01,02,03,04,05,06",False,43.57366943,319.0
10X059,P.S. 059 The Community School of Technology,2185 BATHGATE AVENUE,40.853141,-73.893639,10,Elementary,"PK,0K,01,02,03,04,05",False,43.88489151,417.0
12X061,P.S. 061 Francisco Oller,1550 CROTONA PARK EAST,40.836156,-73.892784,12,Elementary,"PK,0K,01,02,03,04,05",False,37.43589783,195.0
08X062,P.S. 062 Inocensio Casanova,660 FOX STREET,40.813736,-73.900161,8,Elementary,"PK,0K,01,02,03,04,05",False,41.97530746,486.0
09X063,P.S. 063 Author's Academy,1260 FRANKLIN AVENUE,40.83093,-73.901859,9,Elementary,"PK,0K,01,02,03,04,05",False,40.14778137,406.0
07X065,P.S. 065 Mother Hale Academy,677 EAST 141 STREET,40.807916,-73.912557,7,Elementary,"PK,0K,01,02,03,04,05",False,32.92683029,246.0
12X066,P.S. 066 School of Higher Expectations,1001 JENNINGS STREET,40.831493,-73.88654,12,Elementary,"PK,0K,01,02,03,04,05",False,33.39731216,521.0
12X067,P.S. 067 Mohegan School,2024 MOHEGAN AVENUE,40.843781,-73.884192,12,Elementary,"PK,0K,01,02,03,04,05",False,45.77259445,343.0
11X068,P.S. 068 Bronx,4011 MONTICELLO AVENUE,40.891603,-73.83888,11,Elementary,"PK,0K,01,02,03,04,05",False,37.0370369,540.0
08X069,P.S. 069 Journey Prep School,560 THIERIOT AVENUE,40.8167,-73.86046,8,Elementary,"PK,0K,01,02,03,04,05",False,38.97637939,508.0
09X070,P.S. 070 Max Schoenfeld,1691 WEEKS AVENUE,40.844236,-73.90807,9,Elementary,"0K,01,02,03,04,05",False,40.14598465,822.0
08X071,P.S. 071 Rose E. Scala,3040 ROBERTS AVENUE,40.845379,-73.829562,8,Elementary,"PK,0K,01,02,03,04,05,06,07,08",False,34.85513687,1139.0
08X072,P.S. 072 Dr. William Dorney,2951 DEWEY AVENUE,40.823237,-73.818172,8,Elementary,"PK,0K,01,02,03,04,05,SE",False,47.14064789,647.0
09X073,P.S. 073 Bronx,1020 ANDERSON AVENUE,40.832609,-73.926415,9,Elementary,"PK,0K,01,02,03,04,05",False,53.45911789,318.0
08X075,P.S. 75 School of Research and Discovery,984 FAILE STREET,40.822314,-73.888948,8,Elementary,"PK,0K,01,02,03,04,05",False,39.12248611,547.0
11X076,P.S. 076 The Bennington School,900 ADEE AVENUE,40.869059,-73.860928,11,Elementary,"0K,01,02,03,04,05",False,47.06790161,648.0
10X077,Bedford Park Elementary School,3177 WEBSTER AVENUE,40.872559,-73.875375,10,Elementary,"0K,01,02,03,04,05",False,42.30769348,468.0
11X078,P.S. 078 Anne Hutchinson,1400 NEEDHAM AVENUE,40.878474,-73.850563,11,Elementary,"0K,01,02,03,04,05",False,49.02507019,718.0
10X080,J.H.S. 080 The Mosholu Parkway,149 EAST MOSHOLU PKWY N,40.876819,-73.881245,10,Middle School,"06,07,08",False,36.39291382,621.0
10X081,P.S. 081 Robert J. Christen,5550 RIVERDALE AVENUE,40.903275,-73.904657,10,Elementary,"0K,01,02,03,04,05",False,24.11444092,734.0
11X083,P.S. 083 Donald Hertz,950 RHINELANDER AVENUE,40.849176,-73.858769,11,Elementary,"0K,01,02,03,04,05,06,07,08",False,25.14249611,1579.0
10X085,P.S. 085 Great Expectations,2400 MARION AVENUE,40.858689,-73.894682,10,Elementary,"0K,01,02,03,04,05",True,33.07888031,786.0
10X086,P.S. 086 Kingsbridge Heights,2756 RESERVOIR AVENUE,40.869061,-73.897066,10,Elementary,"PK,0K,01,02,03,04,05,06",False,37.40326691,1163.0
11X087,P.S. 087 Bronx,1935 BUSSING AVENUE,40.895741,-73.846198,11,Elementary,"0K,01,02,03,04,05",False,32.47126389,348.0
09X088,P.S. X088 - S. Silverstein Little Sparrow School,1340 SHERIDAN AVENUE,40.837019,-73.913523,9,Elementary,"PK,0K,01,02,03",False,29.80769157,104.0
11X089,P.S. 089 Bronx,980 MACE AVENUE,40.862481,-73.859254,11,Elementary,"PK,0K,01,02,03,04,05,06,07,08",False,42.02551651,1254.0
10X091,P.S. 091 Bronx,2200 AQUEDUCT AVENUE,40.858286,-73.907494,10,Elementary,"0K,01,02,03,04,05",False,43.96984863,398.0
08X093,P.S. 093 Albert G. Oliver,1535 STORY AVENUE,40.822522,-73.877274,8,Elementary,"PK,0K,01,02,03,04,05",False,48.51485062,404.0
10X094,P.S. 094 Kings College School,3530 KINGS COLLEGE PLACE,40.880661,-73.875268,10,Elementary,"0K,01,02,03,04,05",False,40.95940781,813.0
10X095,P.S. 095 Sheila Mencher,3961 HILLMAN AVENUE,40.883049,-73.891664,10,Elementary,"PK,0K,01,02,03,04,05,06,07,08",True,43.07359314,924.0
11X096,P.S. 096 Richard Rodgers,2385 OLINVILLE AVENUE,40.86073,-73.868986,11,Elementary,"0K,01,02,03,04,05",False,29.63752747,938.0
11X097,P.S. 097 Bronx,1375 MACE AVENUE,40.863524,-73.846768,11,Elementary,"PK,0K,01,02,03,04,05",False,39.39393997,627.0
12X098,J.H.S. 098 Herman Ridder,1619 BOSTON ROAD,40.836245,-73.890591,12,Middle School,"06,07,08",False,,
08X100,P.S. 100 Isaac Clason,800 TAYLOR AVENUE,40.822552,-73.86276,8,Elementary,"PK,0K,01,02,03,04,05",False,43.4322052,472.0
08X101,M.S. X101 Edward R. Byrne,2750 LAFAYETTE AVENUE,40.82708,-73.829211,8,Middle School,"06,07,08",False,24.14966011,588.0
11X103,P.S. 103 Hector Fontanez,4125 CARPENTER AVENUE,40.892198,-73.86194,11,Elementary,"0K,01,02,03,04,05",False,43.70034027,881.0
11X105,P.S. 105 Sen Abraham Bernstein,725 BRADY AVENUE,40.853075,-73.866264,11,Elementary,"0K,01,02,03,04,05",True,47.73040009,727.0
11X106,P.S. 106 Parkchester,1514 OLMSTEAD AVENUE,40.836974,-73.854823,11,Elementary,"PK,0K,01,02,03,04,05",False,36.87150955,895.0
08X107,P.S. 107,1695 SEWARD AVENUE,40.819221,-73.868735,8,Elementary,"PK,0K,01,02,03,04,05",False,46.78492355,451.0
11X108,P.S. 108 Philip J. Abinanti,1166 NEILL AVENUE,40.8547,-73.8532,11,Elementary,"0K,01,02,03,04,05",False,18.28410721,711.0
09X109,P.S. 109 Sedgwick,1771 POPHAM AVENUE,40.851661,-73.918991,9,Elementary,"PK,0K,01,02,03,04,05",False,50.32966995,455.0
09X110,P.S. 110 Theodore Schoenfeld,580 CROTONA PARK SOUTH,40.83447,-73.900654,9,Elementary,"PK,0K,01,02,03,04,05",False,47.59036255,332.0
11X111,P.S. 111 Seton Falls,3740 BAYCHESTER AVENUE,40.884371,-73.839288,11,Elementary,"PK,0K,01,02,03,04,05",False,53.3482132,448.0
11X112,P.S. 112 Bronxwood,1925 SCHIEFFELIN AVENUE,40.88494,-73.843977,11,Elementary,"PK,0K,01,02,03,04,05",False,46.98492432,398.0
09X114,P.S. X114 - Luis Llorens Torres Schools,1155 CROMWELL AVENUE,40.834979,-73.923297,9,Elementary,"0K,01,02,03,04",False,41.11111069,540.0
09X117,I.S. 117 Joseph H. Wade,1865 MORRIS AVENUE,40.848552,-73.909022,9,Middle School,"06,07,08",False,38.08219147,365.0
10X118,J.H.S. 118 William W. Niles,577 EAST 179 STREET,40.848702,-73.892482,10,Middle School,"06,07,08",False,34.23077011,520.0
08X119,The Dr. Emmett W. Bassett School,1075 PUGSLEY AVENUE,40.828474,-73.857392,8,Other,"PK,0K,01,02,03,04,05",False,37.34513092,565.0
11X121,P.S. 121 Throop,2750 THROOP AVENUE,40.866474,-73.85051,11,Elementary,"PK,0K,01,02,03,04,05",False,39.90825653,654.0
08X123,J.H.S. 123 James M. Kieran,1025 MORRISON AVENUE,40.824989,-73.874162,8,Middle School,"06,07,08",False,41.09589005,511.0
09X126,P.S. 126 Dr Marjorie H Dunbar,175 WEST 166 STREET,40.835866,-73.9282,9,Elementary,"PK,0K,01,02,03,04,05,06",False,52.4054985,582.0
11X127,J.H.S. 127 The Castle Hill,1560 PURDY STREET,40.838759,-73.853203,11,Middle School,"06,07,08",False,27.41358757,839.0
09X128,Mott Hall III,580 CROTONA PARK SOUTH,40.83447,-73.900654,9,Other,"06,07,08",False,47.95918274,294.0
12X129,M.S. 129 Academy for Independent Learning and Lead,2055 MAPES AVENUE,40.846128,-73.886721,12,Middle School,"06,07,08",False,32.80632401,253.0
08X130,P.S. 130 Abram Stevens Hewitt,750 PROSPECT AVENUE,40.817742,-73.901709,8,Elementary,"PK,0K,01,02,03,04,05",False,43.37349319,332.0
08X131,J.H.S. 131 Albert Einstein,885 BOLTON AVENUE,40.822925,-73.859998,8,Middle School,"06,07,08",False,44.02332306,343.0
09X132,P.S. 132 Garret A. Morgan,1245 WASHINGTON AVENUE,40.832175,-73.907133,9,Elementary,"PK,0K,01,02,03,04,05",False,58.0,400.0
12X134,P.S. 134 George F. Bristow,1330 BRISTOW STREET,40.831613,-73.894241,12,Elementary,"PK,0K,01,02,03,04,05",False,42.49011993,506.0
08X138,P.S. 138 Samuel Randall,2060 LAFAYETTE AVENUE,40.822288,-73.853157,8,Elementary,"PK,0K,01,02,03,04,05",False,53.05755234,556.0
08X140,P.S. X140 The Eagle School,916 EAGLE AVENUE,40.823318,-73.907489,8,Elementary,"PK,0K,01,02,03,04,05",False,53.84615326,390.0
10X141,Riverdale / Kingsbridge Academy (Middle School / H,660 WEST 237 STREET,40.887407,-73.914141,10,Middle School,"06,07,08,09,10,11,12",False,18.87719345,1425.0
11X144,J.H.S. 144 Michelangelo,2545 GUNTHER AVENUE,40.863842,-73.836525,11,Middle School,"06,07,08",False,38.53658676,410.0
08X146,P.S. 146 Edward Collins,968 CAULDWELL AVENUE,40.824717,-73.905734,8,Elementary,"PK,0K,01,02,03,04,05",False,40.80996704,321.0
12X150,P.S. 150 Charles James Fox,920 EAST 167 STREET,40.82471,-73.894349,12,Elementary,"PK,0K,01,02,03,04,05",False,46.58273315,556.0
07X151,J.H.S. 151 Lou Gehrig,250 EAST 156 STREET,40.822574,-73.92114,7,Middle School,"06,07,08",False,,
08X152,P.S. 152 Evergreen,1007 EVERGREEN AVENUE,40.823941,-73.880479,8,Elementary,"PK,0K,01,02,03,04,05,SE",False,43.46630096,727.0
11X153,P.S. 153 Helen Keller,650 BAYCHESTER AVENUE,40.874035,-73.831669,11,Elementary,"0K,01,02,03,04,05",False,22.92576408,458.0
07X154,P.S. 154 Jonathan D. Hyatt,333 EAST 135 STREET,40.808194,-73.925459,7,Elementary,"PK,0K,01,02,03,04,05",False,25.0,240.0
07X157,P.S. 157 Grove Hill,757 CAULDWELL AVENUE,40.819419,-73.908965,7,Elementary,"PK,0K,01,02,03,04,05",False,35.26570129,414.0
10X159,P.S. 159 Luis Munoz Marin Biling,2315 WASHINGTON AVENUE,40.85568,-73.893136,10,Elementary,"0K,01,02,03,04,05",False,27.39726067,146.0
11X160,P.S. 160 Walt Disney,4140 HUTCHINSON RIVER PKWAY EA,40.864073,-73.823816,11,Elementary,"0K,01,02,03,04,05",False,25.24590111,305.0
07X161,P.S. 161 Juan Ponce De Leon School,628 TINTON AVENUE,40.814168,-73.905233,7,Elementary,"PK,0K,01,02,03,04,05",False,41.86746979,332.0
09X163,P.S. 163 Arthur A. Schomburg,2075 WEBSTER AVENUE,40.8517,-73.899005,9,Elementary,"0K,01,02,03,04,05",False,35.56851196,343.0
75X168,P.S. 168,3050 WEBSTER AVENUE,40.869482,-73.878731,10,Elementary,"PK,01,02,03,04,05,06,07,08,09,10,11,12,SE",False,,
11X169,Baychester Academy,3500 EDSON AVENUE,40.881344,-73.839386,11,High School,"PK,0K,01,02,03,04,05",False,36.12565613,382.0
09X170,P.S. 170,1598 TOWNSEND AVENUE,40.844367,-73.913253,9,Elementary,"0K,01,02",False,28.94736862,152.0
11X175,P.S. 175 City Island,200 CITY ISLAND AVENUE,40.844353,-73.78354,11,Elementary,"0K,01,02,03,04,05,06,07,08",False,26.4285717,280.0
75X176,P.S. X176,750 BAYCHESTER AVENUE,40.874035,-73.831669,11,Elementary,"PK,01,02,03,04,05,06,07,08,09,10,11,12,SE",False,,
11X178,P.S. 178 - Dr. Selman Waksman,850 BAYCHESTER AVENUE,40.874035,-73.831669,11,Elementary,"0K,01,02,03,04,05",False,28.03234482,371.0
07X179,P.S. 179,468 EAST 140 STREET,40.80908,-73.919773,7,Elementary,"PK,0K,01,02,03,04,05",False,37.82608795,230.0
11X180,M.S. 180 Dr. Daniel Hale Williams,700 BAYCHESTER AVENUE,40.874035,-73.831669,11,Middle School,"06,07,08",False,35.78553772,802.0
11X181,I.S. 181 Pablo Casals,800 BAYCHESTER AVENUE,40.874035,-73.831669,11,Middle School,"06,07,08",False,32.02357483,509.0
08X182,P.S. 182,601 STICKBALL BOULEVARD,40.818925,-73.856976,8,Elementary,"PK,0K,01,02,03,04,05",False,46.81818008,440.0
75X186,P186X Walter J. Damrosch School,750 JENNINGS STREET,40.831388,-73.897797,12,Other,"01,02,03,04,05,06,07,08,09,10,11,12,SE",False,,
75X188,P.S. X188,770 GROTE STREET,40.850168,-73.883877,10,Elementary,"PK,01,02,03,04,05,06,07,08,09,10,11,12,SE",False,,
11X189,Cornerstone Academy for Social Action,3441 STEENWICK AVENUE,40.882778,-73.830616,11,High School,"PK,0K,01,02,03,04,05",False,37.97909546,287.0
12X190,E.S.M.T- I.S. 190,1550 CROTONA PARK EAST,40.836156,-73.892784,12,Middle School,"06,07,08",False,43.20987701,243.0
11X194,P.S./M.S. 194,2365 WATERBURY AVENUE,40.83541,-73.846594,11,Middle School,"0K,01,02,03,04,05,06,07,08",False,31.2148037,1243.0
12X195,P.S. 195,1250 WARD AVENUE,40.830811,-73.877305,12,Elementary,"02,03,04,05",False,29.01960754,765.0
12X196,P.S. 196,1250 WARD AVENUE,40.830811,-73.877305,12,Elementary,"02,03,04,05",False,32.66128922,744.0
09X199,P.S. 199X - The Shakespeare School,1449 SHAKESPEARE AVENUE,40.843453,-73.920826,9,Elementary,"PK,0K,01,02,03,04,05",True,32.45192337,416.0
09X204,P.S. 204 Morris Heights,1780 DR. MARTIN LUTHER KING JR. BLVD,40.849416,-73.915217,9,Elementary,"0K,01,02,03,04,05",False,33.11475372,610.0
10X205,P.S. 205 Fiorello LaGuardia,2475 SOUTHERN BOULEVARD,40.855759,-73.881753,10,Elementary,"0K,01,02,03,04,05",False,41.41414261,594.0
10X206,I.S. 206 Ann Mersereau,2280 AQUEDUCT AVENUE,40.859534,-73.906285,10,Middle School,"05,06,07,08",False,31.78294563,258.0
10X207,P.S. 207,3030 GODWIN TERRACE,40.878327,-73.906197,10,Elementary,"PK,0K,01,02",False,42.55319214,423.0
10X209,P.S. 209,313 EAST 183RD STREET,40.856834,-73.897635,10,Elementary,"PK,0K,01,02",False,28.5714283,168.0
12X211,P.S. 211,1919 PROSPECT AVENUE,40.843705,-73.890145,12,Elementary,"PK,0K,01,02,03,04,05,06,07,08",False,36.36363602,209.0
12X212,P.S. 212,1180 TINTON AVENUE,40.828406,-73.900121,12,Elementary,"0K,01,02,03,04,05",False,,
10X213,Bronx Engineering and Technology Academy,99 TERRACE VIEW AVENUE,40.877379,-73.912686,10,High School,"09,10,11,12",False,56.3953476,344.0
12X214,P.S. 214,1970 WEST FARMS ROAD,40.839297,-73.879931,12,Elementary,"PK,0K,01,02,03,04,05,06,07,08",False,48.22006607,927.0
09X215,Kappa,3630 THIRD AVENUE,40.833493,-73.903951,9,Other,"05,06,07,08",False,23.60248375,161.0
12X217,School of Performing Arts,977 FOX STREET,40.822056,-73.894368,12,Other,"06,07,08",True,44.23077011,156.0
09X218,P.S./I.S. 218 Rafael Hernandez Dual Language Magne,1220 GERARD AVENUE,40.835681,-73.919571,9,Middle School,"0K,01,02,03,04,05,06,07,08",False,34.09915543,827.0
09X219,I.S. 219 New Venture School,3630 THIRD AVENUE,40.833493,-73.903951,9,Middle School,"06,07,08",False,37.2262764,274.0
07X221,South Bronx Preparatory: A College Board School,360 EAST 145 STREET,40.813612,-73.920851,7,High School,"06,07,08,09,10,11,12",False,26.50793648,630.0
07X223,The Laboratory School of Finance and Technology: X,360 EAST 145 STREET,40.813612,-73.920851,7,Other,"06,07,08,09,10,11,12",False,27.85388184,657.0
07X224,P.S./I.S. 224,345 BROOK AVENUE,40.810314,-73.918774,7,Middle School,"06,07,08",False,34.05405426,185.0
10X225,Theatre Arts Production Company School,2225 WEBSTER AVENUE,40.854257,-73.897404,10,Other,"06,07,08,09,10,11,12",False,51.50115585,433.0
10X226,P.S. 226,1950 SEDGWICK AVENUE,40.855822,-73.916076,10,Elementary,"PK,0K,01,02,03,04",False,28.36257362,342.0
09X227,Bronx Collegiate Academy,240 EAST 172 STREET,40.839307,-73.911366,9,High School,"09,10,11,12",True,37.00440598,454.0
10X228,Jonas Bronck Academy,400 EAST FORDHAM ROAD,40.860987,-73.891562,10,High School,"06,07,08",False,18.939394,396.0
09X229,I.S. 229 Roland Patterson,275 HARLEM RIVER PARK BRIDGE,40.8524,-73.9216,9,Middle School,"05,06,07,08",True,37.5,184.0
09X231,Eagle Academy for Young Men,4143 THIRD AVENUE,40.845366,-73.897479,9,High School,"06,07,08,09,10,11,12",False,17.06783295,457.0
09X232,I.S. 232,1700 MACOMBS ROAD,40.849416,-73.915217,9,Middle School,"06,07,08",False,29.39068031,279.0
09X236,P.S. 236 Langston Hughes,1871 WALTON AVENUE,40.848907,-73.909936,9,Elementary,"PK,0K,01,02,03,04,05",False,37.31778336,343.0
10X237,"The Marie Curie School for Medicine, Nursing, and",120 WEST 231 STREET,40.875636,-73.901565,10,Other,"09,10,11,12",False,45.99303055,287.0
09X241,Urban Assembly School for Applied Math and Science,1595 BATHGATE AVENUE,40.839508,-73.901774,9,Other,"06,07,08,09,10,11,12",False,57.67097855,541.0
12X242,Mott Hall V,1551 EAST 172ND STREET,40.832508,-73.878191,12,Other,"06,07,08,09,10,11,12",False,32.3262825,662.0
10X243,West Bronx Academy for the Future,500 EAST FORDHAM ROAD,40.859466,-73.888625,10,High School,"06,07,08,09,10,11,12",True,29.64824104,597.0
10X244,The New School for Leadership and Journalism,120 WEST 231 STREET,40.875636,-73.901565,10,Other,"06,07,08",False,32.03252029,615.0
10X246,P.S. 246 Poe Center,2641 GRAND CONCOURSE,40.865972,-73.8953,10,Elementary,"0K,01,02,03,04,05,06",False,47.48490906,497.0
12X248,"Metropolitan High School, The",1180 REV. J.A. POLITE AVE.,40.827539,-73.896925,12,High School,"09,10,11,12",False,61.95121765,205.0
11X249,Bronx Health Sciences High School,750 BAYCHESTER AVENUE,40.874035,-73.831669,11,High School,"09,10,11,12",False,28.80886459,361.0
09X250,Eximius College Preparatory Academy: A College Boa,1363 FULTON AVENUE,40.833884,-73.902794,9,High School,"09,10,11,12",False,42.97082138,377.0
12X251,Explorations Academy H.S.,1619 BOSTON ROAD,40.836245,-73.890591,12,High School,"09,10,11,12",True,36.33093643,278.0
09X252,Mott Hall Bronx High School,1595 BATHGATE AVENUE,40.839508,-73.901774,9,High School,"09,10,11,12",False,48.95522308,335.0
11X253,Bronx High School for Writing and Communication Ar,800 EAST GUN HILL ROAD,40.875172,-73.861649,11,High School,"09,10,11,12",False,,
10X254,I.S. 254,2452 WASHINGTON AVENUE,40.858721,-73.889878,10,Middle School,"06,07,08",False,31.63716888,452.0
11X275,High School of Computers and Technology,800 EAST GUN HILL ROAD,40.875172,-73.861649,11,High School,"09,10,11,12",True,35.79766464,514.0
07X259,"H.E.R.O. High (Health, Education, and Research Occ",455 SOUTHERN BLVD,40.810671,-73.907528,7,Other,"09,10,11,12,13,14",False,54.0,750.0
09X260,Bronx Center for Science and Mathematics,1363 FULTON AVENUE,40.833884,-73.902794,9,Other,"09,10,11,12",False,36.27204132,397.0
09X263,Validus Preparatory Academy,1595 BATHGATE AVENUE,40.839508,-73.901774,9,High School,"09,10,11,12",False,56.49350739,308.0
10X264,Bronx Academy for Software Engineering (BASE),2474 CROTONA AVENUE,40.855392,-73.882487,10,High School,"09,10,11,12",False,52.56410217,390.0
11X265,Bronx Lab School,800 EAST GUN HILL ROAD,40.875172,-73.861649,11,Other,"09,10,11,12",True,40.06849289,292.0
12X267,Bronx Latin,800 HOME STREET,40.826933,-73.900593,12,Other,"06,07,08,09,10,11,12",False,46.80412292,485.0
10X268,Kingsbridge International High School,2780 RESERVOIR AVENUE,40.869061,-73.897066,10,High School,"09,10,11,12",True,43.72294235,231.0
08X269,Bronx Studio School for Writers and Artists,928 SIMPSON STREET,40.820388,-73.892961,8,Other,"06,07,08,09,10,11,12",False,48.94308853,615.0
11X270,Academy for Scholarship and Entrepreneurship: A Co,921 EAST 228TH STREET,40.888242,-73.852714,11,High School,"09,10,11,12",False,41.79104614,469.0
12X271,East Bronx Academy for the Future,1716 SOUTHERN BOULEVARD,40.836821,-73.887688,12,High School,"06,07,08,09,10,11,12",False,43.6046524,688.0
12X273,Frederick Douglass Academy V. Middle School,2111 CROTONA AVENUE,40.848748,-73.888987,12,Middle School,"06,07,08",False,46.55172348,174.0
09X274,The New American Academy at Roberto Clemente State,275 HARLEM RIVER PARK BRIDGE,40.8524,-73.9216,9,High School,"PK,0K,01,03,04,05",True,45.66929245,381.0
07X277,P.S. 277,519 ST ANNS AVENUE,40.813385,-73.913872,7,Elementary,"PK,0K,01,02,03,04,05",False,37.62886429,388.0
10X279,"P.S. 279 Captain Manuel Rivera, Jr.",2100 WALTON AVENUE,40.854666,-73.904958,10,Elementary,"0K,01,02,03,04,05,06,07,08",False,26.36229706,679.0
10X280,P.S./M.S. 280 Mosholu Parkway,3202 STEUBEN AVENUE,40.876819,-73.881245,10,Middle School,"0K,01,02,03,04,05,06,07,08",False,42.91609192,727.0
08X282,Women's Academy of Excellence,456 WHITE PLAINS ROAD,40.815043,-73.85607,8,High School,"09,10,11,12",True,43.06930542,202.0
10X284,Bronx School of Law and Finance,99 TERRACE VIEW AVENUE,40.877379,-73.912686,10,Other,"09,10,11,12",False,50.82872772,362.0
12X286,Fannie Lou Hamer Middle School,1001 JENNINGS STREET,40.831493,-73.88654,12,Middle School,"06,07,08,SE",False,41.69741821,271.0
11X287,North Bronx School of Empowerment,3710 BARNES AVENUE,40.880649,-73.860126,11,Other,"06,07,08,SE",True,45.62334061,377.0
11X288,Collegiate Institute for Math and Science,925 ASTOR AVENUE,40.860443,-73.860729,11,Other,"09,10,11,12",True,27.39726067,584.0
11X290,Bronx Academy of Health Careers,800 EAST GUN HILL ROAD,40.875172,-73.861649,11,High School,"09,10,11,12",True,28.44311333,334.0
10X291,P.S. 291,2195 ANDREWS AVENUE,40.859243,-73.909763,10,Elementary,"0K,01,02,03,04",False,38.80596924,335.0
08X293,Renaissance High School for Musical Theater and th,3000 EAST TREMONT AVENUE,40.839775,-73.839583,11,High School,"09,10,11,12",True,45.92592621,405.0
09X294,The Walton Avenue School,1425 WALTON AVENUE,40.8404,-73.915879,9,Other,"0K,01,02,03,04,05",False,38.27160645,324.0
07X296,South Bronx Academy for Applied Media,778 FOREST AVENUE,40.818703,-73.905389,7,High School,"06,07,08",False,41.530056,183.0
09X297,Morris Academy for Collaborative Studies,1110 BOSTON ROAD,40.827455,-73.90392,9,High School,"09,10,11,12",True,56.4270134,459.0
07X298,Academy of Public Relations,778 FOREST AVENUE,40.818703,-73.905389,7,High School,"06,07,08",False,31.29251671,147.0
11X299,Astor Collegiate Academy,925 ASTOR AVENUE,40.860443,-73.860729,11,High School,"09,10,11,12",True,40.49216843,447.0
12X300,The School of Science and Applied Learning,2050 PROSPECT AVENUE,40.846128,-73.886721,12,Other,"PK,0K,01,02,03,04,05",False,48.2269516,423.0
08X301,M.S. 301 Paul L. Dunbar,890 CAULDWELL AVENUE,40.822291,-73.906739,8,Middle School,"06,07,08",False,43.93063736,173.0
08X302,M.S. 302 Luisa Dessus Cruz,681 KELLY STREET,40.816078,-73.901599,8,Middle School,"06,07,08",False,32.57790375,353.0
09X303,I.S. X303 Leadership & Community Service,1700 MACOMBS ROAD,40.849416,-73.915217,9,Middle School,"06,07,08",False,24.50980377,306.0
08X304,P.S. 304 Early Childhood School,2750 LAFAYETTE AVENUE,40.82708,-73.829211,8,Elementary,"PK,0K,01,02,03,04,05",False,39.07849884,586.0
10X306,P.S. 306,40 WEST TREMONT AVENUE,40.850722,-73.910827,10,Elementary,"0K,01,02,03,04,05",False,30.52884674,416.0
10X307,Luisa Pineiro Fuentes School of Science and Discov,124 EAMES PLACE,40.869142,-73.901821,10,Other,"PK,0K,01,02,03,04,05",False,,
10X308,Bronx Dance Academy School,3617 BAINBRIDGE AVENUE,40.885428,-73.878051,10,High School,"06,07,08",False,42.23826599,277.0
10X310,P.S. 310 Marble Hill,260 W KINGSBRIDGE RD,40.872477,-73.905547,10,Elementary,"PK,0K,01,02,03,04,05",False,39.91507339,471.0
09X311,Lucero Elementary School,1425 WALTON AVENUE,40.8404,-73.915879,9,Elementary,"0K,01,02,03,04,05",False,38.0062294,321.0
08X312,Millennium Art Academy,1980 LAFAYETTE AVENUE,40.821218,-73.85593,8,High School,"09,10,11,12",True,43.25842667,356.0
09X313,I.S. 313 School of Leadership Development,1600 WEBSTER AVENUE,40.840536,-73.904353,9,Middle School,"06,07,08",True,35.48387146,124.0
12X314,Fairmont Neighborhood School,1550 VYSE AVENUE,40.834188,-73.886995,12,Other,"PK,0K,01,02,03,04,05",False,41.1971817,284.0
10X315,P.S. 315 Lab School,2865 CLAFLIN AVENUE,40.873659,-73.900068,10,Elementary,"0K,01,02,03,04,05,06,07,08",False,34.56221008,217.0
12X316,Kappa III,2055 MAPES AVENUE,40.846128,-73.886721,12,Other,"06,07,08",False,36.76470566,272.0
12X318,"I.S. X318 Math, Science & Technology Through Arts",1919 PROSPECT AVENUE,40.843705,-73.890145,12,Middle School,"06,07,08",False,45.5149498,301.0
10X319,Providing Urban Learners Success In Education High,560 EAST 179 STREET,40.848385,-73.893744,10,Other,"09,10,11,12",False,,
08X320,Pelham Lab High School,3000 EAST TREMONT AVENUE,40.839775,-73.839583,11,High School,"09,10,11,12",True,62.98507309,335.0
09X323,Bronx Writing Academy,270 EAST 167 STREET,40.832022,-73.91435,9,High School,"06,07,08",False,35.37735748,212.0
09X324,Bronx Early College Academy for Teaching & Learnin,250 EAST 164 STREET,40.828009,-73.917705,9,High School,"06,07,08,09,10,11,12",False,39.36170197,376.0
11X326,Bronx Green Middle School,2441 WALLACE AVENUE,40.862098,-73.865028,11,Middle School,"06,07,08",False,42.63158035,380.0
09X327,Comprehensive Model School Project M.S. 327,1501 JEROME AVENUE,40.842503,-73.916084,9,Middle School,"06,07,08,09,10,11,12",True,42.03730392,697.0
09X328,New Millennium Bronx Academy of the Arts,1000 TELLER AVENUE,40.827438,-73.914067,9,High School,"06,07,08",True,31.57894707,133.0
09X329,DreamYard Preparatory School,240 EAST 172 STREET,40.839307,-73.911366,9,High School,"09,10,11,12",True,34.6875,320.0
10X331,The Bronx School of Young Leaders,40 WEST TREMONT AVENUE,40.850722,-73.910827,10,Other,"06,07,08",False,34.94623566,372.0
08X333,The Longwood Academy of Discovery,888 REV J A POLITE AVE,40.820108,-73.898399,8,High School,"PK,0K,01,02,03",False,49.39516068,496.0
07X334,International Community High School,345 BROOK AVENUE,40.810314,-73.918774,7,High School,"09,10,11,12",False,44.92753601,414.0
08X337,The School for Inquiry and Social Justice,1025 MORRISON AVENUE,40.824989,-73.874162,8,Other,"06,07,08",False,35.64356613,404.0
09X339,I.S. 339,1600 WEBSTER AVENUE,40.840536,-73.904353,9,Middle School,"06,07,08",True,18.40796089,201.0
10X340,P.S. 340,25 WEST 195 STREET,40.869407,-73.897171,10,Elementary,"0K,01,02,03,04,05",False,36.25827789,604.0
12X341,Accion Academy,977 FOX STREET,40.822056,-73.894368,12,High School,"06,07,08",True,40.65420532,214.0
10X342,International School for Liberal Arts,2780 RESERVOIR AVENUE,40.869061,-73.897066,10,Other,"06,07,08,09,10,11,12",True,35.0202446,494.0
07X343,Academy of Applied Mathematics and Technology,345 BROOK AVENUE,40.810314,-73.918774,7,High School,"06,07,08",False,24.56140327,285.0
10X344,Ampark Neighborhood,3961 HILLMAN AVENUE,40.883049,-73.891664,10,Other,"0K,01,02,03,04,05",True,22.90322495,310.0
08X348,Schuylerville Preparatory High School,3000 EAST TREMONT AVENUE,40.839775,-73.839583,11,High School,"09,10,11,12",True,57.67045593,352.0
08X349,Bronx River High School,3000 EAST TREMONT AVENUE,40.839775,-73.839583,11,High School,"09,10,11,12",True,39.53488541,430.0
09X350,New Directions Secondary School,240 EAST 172 STREET,40.839307,-73.911366,9,Other,"06,07,08,09,10,11,12",True,,
10X351,Bronx Collaborative High School,100 WEST MOSHOLU PARKWAY SOUTH,40.879958,-73.889011,10,High School,"09,10,11,12",True,76.55914307,465.0
75X352,The Vida Bogart School for All Children,1000 EAST TREMONT AVENUE,40.840445,-73.882531,12,Other,"01,02,03,04,05,06,07,08,09",False,,
10X353,World View High School,100 WEST MOSHOLU PARKWAY SOUTH,40.879958,-73.889011,10,High School,"09,10,11,12",True,39.6369133,661.0
11X355,Bronx Alliance Middle School,3750 BAYCHESTER AVENUE,40.886002,-73.839682,11,Middle School,"06,07,08",True,32.53588486,209.0
11X357,Young Voices Academy of the Bronx,800 LYDIG AVENUE,40.854423,-73.863733,11,High School,"0K,01,02,03,04,05",False,27.29528618,403.0
07X359,Concourse Village Elementary School,750 CONCOURSE VILLAGE WEST,40.823014,-73.922527,7,Elementary,"PK,0K,01,02,03,04,05",False,7.339449406,218.0
10X360,P.S. 360,2880 KINGSBRIDGE TERRACE,40.874717,-73.902214,10,Elementary,"0K,01,02,03,04,05",False,42.62295151,305.0
09X361,The Highbridge Green School,200 West 167th Street,40.838232,-73.927892,9,Other,"06,07,08",False,27.40384674,416.0
10X363,Academy For Personal Leadership And Excellence,120 EAST 184 STREET,40.859496,-73.90049,10,High School,"06,07,08",False,43.40723419,857.0
09X365,Academy for Language and Technology,1700 MACOMBS ROAD,40.849416,-73.915217,9,High School,"09,10,11,12",False,25.78947449,380.0
08X367,"Archimedes Academy for Math, Science and Technolog",456 WHITE PLAINS ROAD,40.815043,-73.85607,8,High School,"06,07,08,09,10,11,12",True,54.10821533,499.0
10X368,In-Tech Academy (M.S. / High School 368),2975 TIBBETT AVENUE,40.877935,-73.913694,10,High School,"06,07,08,09,10,11,12",False,24.92462349,995.0
07X369,Young Leaders Elementary School,468 EAST 140 STREET,40.80908,-73.919773,7,Elementary,"PK,0K,01,02,03,04,05",False,36.13445282,238.0
11X370,Leaders of Tomorrow,3710 BARNES AVENUE,40.880649,-73.860126,11,Other,"06,07,08",True,47.25274658,455.0
08X371,Urban Institute of Mathematics,650 HOLLYWOOD AVENUE,40.826794,-73.818083,8,Other,"06,07,08",False,31.59203911,402.0
10X374,Knowledge and Power Preparatory Academy Internatio,500 EAST FORDHAM ROAD,40.859466,-73.888625,10,High School,"09,10,11,12",True,50.94339752,477.0
08X375,The Bronx Mathematics Preparatory School,456 WHITE PLAINS ROAD,40.815043,-73.85607,8,High School,"06,07,08",True,47.68518448,216.0
08X376,Antonia Pantoja Preparatory Academy: A College Boa,1980 LAFAYETTE AVENUE,40.821218,-73.85593,8,High School,"06,07,08,09,10,11,12",True,56.87645721,429.0
08X377,Bronx Community High School,1980 LAFAYETTE AVENUE,40.821218,-73.85593,8,High School,"09,10,11,12",True,,
07X379,Jill Chaifetz Transfer High School,778 FOREST AVENUE,40.818703,-73.905389,7,High School,"09,10,11,12",False,,
07X381,Bronx Haven High School,333 EAST 151 STREET,40.818645,-73.919949,7,High School,"09,10,11,12",False,,
10X382,"Elementary School for Math, Science, and Technolog",125 EAST 181 STREET,40.855337,-73.903139,10,Elementary,"PK,0K,01,02,03,04,05",False,,
12X383,Emolior Academy,1970 WEST FARMS ROAD,40.839297,-73.879931,12,High School,"06,07,08",False,37.68473053,406.0
10X386,School for Environmental Citizenship,125 EAST 181 STREET,40.855337,-73.903139,10,Other,"PK,0K,01,02,03,04,05",False,26.13065338,597.0
12X388,Pan American International High School at Monroe,1300 BOYNTON AVENUE,40.832508,-73.878191,12,High School,"09,10,11,12",False,40.35989761,389.0
10X390,M.S. 390,1930 ANDREWS AVENUE,40.854335,-73.913016,10,Middle School,"05,06,07,08",False,26.12612534,333.0
10X391,The Angelo Patri Middle School,2225 WEBSTER AVENUE,40.854257,-73.897404,10,Middle School,"06,07,08",False,32.8083992,381.0
08X392,Bronx Delta School,650 HOLLYWOOD AVENUE,40.826794,-73.818083,8,Other,"0K,01,02,03,04,05",False,38.83720779,430.0
10X396,P.S. 396,1930 ANDREWS AVENUE,40.854335,-73.913016,10,Elementary,"PK,0K,01,02,03,04",False,22.4066391,241.0
10X397,English Language Learners and International Suppor,99 TERRACE VIEW AVENUE,40.877379,-73.912686,10,Other,"09,10,11,12",False,,
09X403,Bronx International High School,1110 BOSTON ROAD,40.827455,-73.90392,9,High School,"09,10,11,12",True,62.01716614,466.0
09X404,School for Excellence,1110 BOSTON ROAD,40.827455,-73.90392,9,Other,"09,10,11,12",False,,
08X405,Herbert H. Lehman High School,3000 EAST TREMONT AVENUE,40.839775,-73.839583,11,High School,"09,10,11,12",True,35.7269516,1128.0
09X412,Bronx High School of Business,240 EAST 172 STREET,40.839307,-73.911366,9,High School,"09,10,11,12",True,54.79876328,323.0
09X413,Bronx High School for Medical Science,240 EAST 172 STREET,40.839307,-73.911366,9,High School,"06,07,08,09,10,11,12",True,26.03406334,411.0
11X418,Bronx High School for the Visual Arts,2040 ANTIN PL,40.851577,-73.864438,11,High School,"09,10,11,12",False,37.6744194,430.0
08X424,The Hunts Point School,730 BRYANT AVENUE,40.815827,-73.885284,8,Other,"06,07,08",False,36.81318665,182.0
07X427,Community School for Social Justice,350 GERARD AVENUE,40.815712,-73.92996,7,Other,"09,10,11,12",False,59.80861282,209.0
08X432,Bronx Bridges High School,1980 LAFAYETTE AVENUE,40.821218,-73.85593,8,High School,"09,10,11,12",True,45.88528824,401.0
10X433,High School for Teaching and the Professions,2780 RESERVOIR AVENUE,40.869061,-73.897066,10,High School,"09,10,11,12",True,32.96703339,364.0
10X434,Belmont Preparatory High School,500 EAST FORDHAM ROAD,40.859466,-73.888625,10,High School,"09,10,11,12",True,48.36795425,337.0
10X437,Fordham High School for the Arts,500 EAST FORDHAM ROAD,40.859466,-73.888625,10,High School,"09,10,11,12",True,24.21652412,351.0
10X438,Fordham Leadership Academy,500 EAST FORDHAM ROAD,40.859466,-73.888625,10,High School,"09,10,11,12",True,35.38461685,390.0
10X439,Bronx High School for Law and Community Service,500 EAST FORDHAM ROAD,40.859466,-73.888625,10,High School,"09,10,11,12",True,34.90813828,381.0
10X440,DeWitt Clinton High School,100 WEST MOSHOLU PARKWAY SOUTH,40.879958,-73.889011,10,High School,"09,10,11,12",True,29.08522224,1279.0
10X442,"Celia Cruz Bronx High School of Music, The",2780 RESERVOIR AVENUE,40.869061,-73.897066,10,High School,"09,10,11,12",True,13.17073154,410.0
09X443,The Family School,1116 SHERIDAN AVENUE,40.831873,-73.917526,9,Other,"0K,01,02,03,04,05",False,41.55251312,438.0
10X445,The Bronx High School of Science,75 WEST 205 STREET,40.879958,-73.889011,10,High School,"09,10,11,12",True,10.27721405,2958.0
12X446,Arturo A. Schomburg Satellite Academy Bronx,1010 REV. J. A. POLITE AVENUE,40.823124,-73.898265,12,High School,"09,10,11,12",True,,
10X447,Creston Academy,125 EAST 181 STREET,40.855337,-73.903139,10,High School,"06,07,08",False,31.40877533,433.0
08X448,Soundview Academy for Culture and Scholarship,885 BOLTON AVENUE,40.822925,-73.859998,8,High School,"06,07,08",False,56.47058868,255.0
09X449,Grant Avenue Elementary School,250 EAST 164 STREET,40.828009,-73.917705,9,Elementary,"0K,01,02,03,04,05",False,40.36458206,384.0
08X452,Gotham Collaborative High School,1980 LAFAYETTE AVENUE,40.821218,-73.85593,8,High School,"09,10,11,12",True,40.47618866,336.0
09X454,Science and Technology Academy: A Mott Hall School,250 EAST 164 STREET,40.828009,-73.917705,9,High School,"06,07,08",False,36.29032135,372.0
11X455,Harry S Truman High School,750 BAYCHESTER AVENUE,40.874035,-73.831669,11,High School,"09,10,11,12",False,21.4285717,1806.0
09X457,Sheridan Academy for Young Leaders,1116 SHERIDAN AVENUE,40.831873,-73.917526,9,High School,"0K,01,02,03,04,05",False,40.49216843,447.0
12X458,Samara Community School,1550 VYSE AVENUE,40.834188,-73.886995,12,Other,"0K,01,02,03,04,05",False,25.14619827,342.0
11X462,Cornerstone Academy for Social Action Middle Schoo,3441 STEENWICK AVENUE,40.882778,-73.830616,11,Middle School,"06,07,08",False,43.57542038,179.0
12X463,Urban Scholars Community School,1180 TINTON AVENUE,40.828406,-73.900121,12,Other,"PK,0K,01,02,03,04,05",True,42.23602295,322.0
08X467,Mott Hall Community School,650 HOLLYWOOD AVENUE,40.826794,-73.818083,8,Other,"06,07,08",False,49.29577637,284.0
11X468,Pelham Academy of Academics and Community Engageme,2441 WALLACE AVENUE,40.862098,-73.865028,11,High School,"06,07,08",False,29.19463158,298.0
75X469,P469X - The Bronx School for Continuous Learners,3177 WEBSTER AVENUE,40.872559,-73.875375,10,Other,"0K,01,02,03,04,05,06,07,08",False,,
07X473,Mott Haven Village Preparatory High School,701 ST. ANNS AVENUE,40.818041,-73.911633,7,High School,"09,10,11,12",True,47.22222137,216.0
10X477,Marble Hill High School for International Studies,99 TERRACE VIEW AVENUE,40.877379,-73.912686,10,High School,"09,10,11,12",False,29.03225899,403.0
12X478,The Cinema School,1551 EAST 172ND STREET,40.832508,-73.878191,12,Other,"09,10,11,12",False,51.09717941,319.0
12X479,Bronx Career and College Preparatory High School,800 HOME STREET,40.826933,-73.900593,12,High School,"09,10,11,12",False,69.7530899,162.0
12X480,Bronx Regional High School,1010 REV. J. A. POLITE AVENUE,40.823124,-73.898265,12,High School,"09,10,11,12",True,,
11X481,The STEAM Bridge School,1684 WHITE PLAINS ROAD,40.843531,-73.865498,11,Other,"0K,01,02,03,04,05",False,28.22299576,287.0
11X483,The Matilda Avenue School,4520 MATILDA AVENUE,40.901436,-73.854402,11,Other,"0K,01,02,03,04,05",False,36.328125,256.0
07X495,University Heights Secondary School,701 ST. ANNS AVENUE,40.818041,-73.911633,7,Other,"09,10,11,12",True,26.97368431,608.0
11X498,P.S./M.S. 11X498 - Van Nest Academy,1640 BRONXDALE AVE,40.845023,-73.857989,11,Middle School,"0K,01,02,03,04,05,06,07,08",False,23.57723618,615.0
07X500,Hostos-Lincoln Academy of Science,600 SAINT ANN'S AVENUE,40.814857,-73.912038,7,High School,"06,07,08,09,10,11,12",False,52.56410217,468.0
09X505,"Bronx School for Law, Government and Justice",244 EAST 163 STREET,40.827461,-73.919024,9,Other,"07,08,09,10,11,12",False,32.35293961,714.0
11X508,Bronxdale High School,925 ASTOR AVENUE,40.860443,-73.860729,11,High School,"09,10,11,12",True,25.42787361,409.0
11X509,High School of Language and Innovation,925 ASTOR AVENUE,40.860443,-73.860729,11,High School,"09,10,11,12",True,28.11059952,434.0
12X511,Bronx Envision Academy,1619 BOSTON ROAD,40.836245,-73.890591,12,High School,"09,10,11,12",True,53.08219147,292.0
11X513,New World High School,921 EAST 228TH STREET,40.888242,-73.852714,11,High School,"09,10,11,12",False,25.92592621,324.0
11X514,The Bronxwood Preparatory Academy,921 EAST 228TH STREET,40.888242,-73.852714,11,High School,"09,10,11,12",False,20.74592018,429.0
09X517,Frederick Douglass Academy III Secondary School,3630 THIRD AVENUE,40.833493,-73.903951,9,High School,"09,10,11,12",False,30.53435135,262.0
12X521,The Metropolitan Soundview High School,1300 BOYNTON AVENUE,40.832508,-73.878191,12,High School,"09,10,11,12",False,38.70967865,403.0
07X522,Bronx Design and Construction Academy,333 EAST 151 STREET,40.818645,-73.919949,7,High School,"09,10,11,12",False,39.16666794,240.0
10X524,Crotona International High School,2474 CROTONA AVENUE,40.855392,-73.882487,10,High School,"09,10,11,12",False,42.27848053,395.0
09X525,Bronx Leadership Academy High School,1710 WEBSTER AVENUE,40.84325,-73.902969,9,High School,"09,10,11,12",False,39.44020462,393.0
07X527,Bronx Leadership Academy II High School,730 CONCOURSE VILLAGE WEST,40.821828,-73.922366,7,High School,"09,10,11,12",True,51.90839767,393.0
11X529,One World Middle School at Edenwald,3750 BAYCHESTER AVENUE,40.886002,-73.839682,11,Middle School,"06,07,08",True,30.83832359,334.0
08X530,Longwood Preparatory Academy,965 LONGWOOD AVENUE,40.817741,-73.897876,8,High School,"09,10,11,12",False,52.49343872,381.0
12X531,Archer Elementary School,1827 ARCHER STREET,40.838151,-73.866038,12,Elementary,"PK,0K,01,02,03,04,05",False,27.27272797,341.0
11X532,Baychester Middle School,3750 BAYCHESTER AVENUE,40.886002,-73.839682,11,Middle School,"06,07,08",True,44.72843552,313.0
12X536,P.S. 536,1827 ARCHER STREET,40.838151,-73.866038,12,Elementary,"PK,0K,01,02,03,04,05",False,21.54340744,311.0
08X537,Bronx Arena High School,1440 STORY AVENUE,40.820486,-73.881187,8,High School,"09,10,11,12",False,,
11X542,Pelham Preparatory Academy,925 ASTOR AVENUE,40.860443,-73.860729,11,High School,"09,10,11,12",True,28.69198227,474.0
09X543,High School for Violin and Dance,1110 BOSTON ROAD,40.827455,-73.90392,9,High School,"09,10,11,12",True,37.67123413,146.0
11X544,High School for Contemporary Arts,800 EAST GUN HILL ROAD,40.875172,-73.861649,11,High School,"09,10,11,12",True,53.01587296,315.0
11X545,Bronx Aerospace High School,800 EAST GUN HILL ROAD,40.875172,-73.861649,11,High School,"09,10,11,12",True,32.66832733,401.0
10X546,Bronx Theatre High School,99 TERRACE VIEW AVENUE,40.877379,-73.912686,10,High School,"09,10,11,12",False,68.67469788,249.0
07X548,Careers in Sports High School,730 CONCOURSE VILLAGE WEST,40.821828,-73.922366,7,High School,"09,10,11,12",True,47.6595726,470.0
10X549,Discovery High School,2780 RESERVOIR AVENUE,40.869061,-73.897066,10,High School,"09,10,11,12",True,24.57420921,411.0
12X550,High School of World Cultures,1300 BOYNTON AVENUE,40.832508,-73.878191,12,High School,"09,10,11,12",False,32.77511978,418.0
07X551,The Urban Assembly Bronx Academy of Letters,339 MORRIS AVENUE,40.813681,-73.925995,7,High School,"06,07,08,09,10,11,12,SE",False,63.76146698,436.0
09X555,Mount Eden Children's Academy,1501 JEROME AVENUE,40.842503,-73.916084,9,High School,"0K,01,02,03,04,05",True,26.27737236,411.0
11X556,Bronx Park Middle School,2441 WALLACE AVENUE,40.862098,-73.865028,11,Middle School,"06,07,08",False,46.22356415,331.0
07X557,Mott Haven Community High School,455 SOUTHERN BLVD,40.810671,-73.907528,7,High School,"09,10,11,12",False,,
08X558,Westchester Square Academy,3000 EAST TREMONT AVENUE,40.839775,-73.839583,11,High School,"09,10,11,12",True,55.26932144,427.0
08X559,School for Tourism and Hospitality,900 TINTON AVENUE,40.821723,-73.902892,8,Other,"09,10,11,12",False,,
08X561,Bronx Compass High School,1980 LAFAYETTE AVENUE,40.821218,-73.85593,8,High School,"09,10,11,12",True,42.29885101,435.0
08X562,Blueprint Middle School,1111 PUGSLEY AVENUE,40.829153,-73.857882,8,Middle School,"06,07,08",False,41.70854187,597.0
09X564,Claremont International HS,240 EAST 172 STREET,40.839307,-73.911366,9,Other,"09,10,11,12",True,35.87174225,499.0
10X565,High School for Energy and Technology,2474 CROTONA AVENUE,40.855392,-73.882487,10,High School,"09,10,11,12",False,43.39080429,348.0
11X566,Pelham Gardens Middle School,2545 GUNTHER AVENUE,40.863842,-73.836525,11,Middle School,"06,07,08",False,46.13003159,323.0
11X567,Linden Tree Elementary School,1560 PURDY STREET,40.838759,-73.853203,11,Elementary,"0K,01,02,03,04,05",False,34.95701981,349.0
09X568,Young Women's Leadership School of the Bronx,1865 MORRIS AVENUE,40.848552,-73.909022,9,Other,"06,07,08,09,10,11,12",False,33.13492203,504.0
08X583,P.S. 583,1028 WHITE PLAINS ROAD,40.826949,-73.859622,8,Elementary,"0K,01,02,03,04,05",False,33.47826004,460.0
07X584,I.S. 584,600 SAINT ANN'S AVENUE,40.814857,-73.912038,7,Middle School,"06,07,08",False,36.71497726,207.0
09X593,South Bronx International Middle School,1000 TELLER AVENUE,40.827438,-73.914067,9,Middle School,,True,12.5,152.0
09X594,M.S. 594,1000 TELLER AVENUE,40.827438,-73.914067,9,Middle School,,True,27.21518898,158.0
12X595,P.S. 595,700 EAST 179 STREET,40.846205,-73.889602,12,Elementary,"PK,0K,01,02,03,04,05",False,45.72490692,269.0
75X596,P.S. X596,850 BAYCHESTER AVENUE,40.874035,-73.831669,11,Elementary,,False,,
07X600,Alfred E. Smith Career and Technical Education Hig,333 EAST 151 STREET,40.818645,-73.919949,7,Other,"09,10,11,12",False,56.45933151,418.0
07X670,Health Opportunities High School,350 GERARD AVENUE,40.815712,-73.92996,7,High School,"09,10,11,12",False,45.45454407,253.0
12X682,Fannie Lou Hamer Freedom High School,1021 JENNINGS STREET,40.831212,-73.885804,12,High School,"09,10,11,12",False,65.07936859,441.0
12X684,Wings Academy,1122 EAST 180 STREET,40.841376,-73.875262,12,High School,"09,10,11,12",False,58.62068939,261.0
12X691,Bronx Little School,1827 ARCHER STREET,40.838151,-73.866038,12,Other,"PK,0K,01,02,03,04,05",False,21.5339241,339.0
10X696,High School of American Studies at Lehman College,2925 GOULDEN AVENUE,40.874725,-73.895543,10,High School,"09,10,11,12",False,7.848101139,395.0
75X721,P.S. X721 - Stephen McSweeney School,2697 WESTCHESTER AVENUE,40.842725,-73.839114,11,Elementary,"07,08,09,10,11,12,SE",False,,
75X723,P.S. 723,3540 BIVONA STREET,40.88298,-73.831856,11,Elementary,"01,02,03,04,05,06,07,08,09,10,11,12,SE",False,,
75X754,J. M. Rapport School Career Development,470 JACKSON AVENUE,40.811051,-73.909363,7,Other,"09,10,11,12,SE",False,,
75X811,P.S. X811,1434 LONGFELLOW AVENUE,40.830552,-73.886798,12,Elementary,"07,08,09,10,11,12,SE",False,,
